NORAD_CAT_ID,OBJECT_NAME,OBJECT_TYPE,EPOCH,MEAN_MOTION,ECCENTRICITY,INCLINATION,RA_OF_ASC_NODE,ARG_OF_PERICENTER,MEAN_ANOMALY,BSTAR,MEAN_MOTION_DOT,MEAN_MOTION_DDOT,TLE_LINE0,TLE_LINE1,TLE_LINE2,SEMIMAJOR_AXIS,PERIOD,APOGEE,PERIGEE,DECAYED
50175.0,STARLINK-3291,PAYLOAD,2023-05-01 14:58:33,15.08836209,8.83e-05,53.2153,251.6186,61.8103,298.2978,-3.1038e-05,-7.82e-06,0.0,0 STARLINK-3291,1 50175U 21125V   23121.62400197 -.00000782  00000-0 -31038-4 0  9995,2 50175  53.2153 251.6186 0000883  61.8103 298.2978 15.08836209 78648,6917.892,95.438,540.368,539.146,0.0
50175.0,STARLINK-3291,PAYLOAD,2023-05-01 18:09:19,15.08843398,8.54e-05,53.2165,251.0254,85.6873,274.4217,9.6563e-05,1.25e-05,0.0,0 STARLINK-3291,1 50175U 21125V   23121.75647887  .00001250  00000-0  96563-4 0  9991,2 50175  53.2165 251.0254 0000854  85.6873 274.4217 15.08843398 79153,6917.87,95.437,540.326,539.144,0.0
50175.0,STARLINK-3291,PAYLOAD,2023-05-02 13:13:57,15.08848474,8.96e-05,53.2168,247.4579,79.2571,280.8522,0.00023563,3.465e-05,0.0,0 STARLINK-3291,1 50175U 21125V   23122.55135801  .00003465  00000-0  23563-3 0  9997,2 50175  53.2168 247.4579 0000896  79.2571 280.8522 15.08848474 79278,6917.854,95.437,540.339,539.1,0.0
50175.0,STARLINK-3291,PAYLOAD,2023-05-02 19:35:29,15.08859132,9.03e-05,53.2159,246.2664,79.8492,280.2602,0.00046812,7.174e-05,0.0,0 STARLINK-3291,1 50175U 21125V   23122.81631325  .00007174  00000-0  46812-3 0  9991,2 50175  53.2159 246.2664 0000903  79.8492 280.2602 15.08859132 78823,6917.822,95.436,540.312,539.062,0.0
50175.0,STARLINK-3291,PAYLOAD,2023-05-03 13:04:44,15.0883968,9.08e-05,53.216,242.9969,68.01,292.0988,6.1681e-05,6.94e-06,0.0,0 STARLINK-3291,1 50175U 21125V   23123.54496145  .00000694  00000-0  61681-4 0  9993,2 50175  53.2160 242.9969 0000908  68.0100 292.0988 15.08839680 78933,6917.881,95.438,540.375,539.118,0.0
50175.0,STARLINK-3291,PAYLOAD,2023-05-03 17:50:53,15.08845108,8.6e-05,53.2164,242.1045,76.4683,283.6405,0.00018937,2.728e-05,0.0,0 STARLINK-3291,1 50175U 21125V   23123.74367934  .00002728  00000-0  18937-3 0  9993,2 50175  53.2164 242.1045 0000860  76.4683 283.6405 15.08845108 79450,6917.865,95.437,540.325,539.135,0.0
50175.0,STARLINK-3291,PAYLOAD,2023-05-04 12:55:31,15.0884663,9.62e-05,53.2167,238.5363,73.131,286.9787,0.00026267,3.896e-05,0.0,0 STARLINK-3291,1 50175U 21125V   23124.53856010  .00003896  00000-0  26267-3 0  9991,2 50175  53.2167 238.5363 0000962  73.1310 286.9787 15.08846630 79572,6917.86,95.437,540.391,539.06,0.0
50175.0,STARLINK-3291,PAYLOAD,2023-05-04 14:30:54,15.08849166,9.83e-05,53.2168,238.2388,73.8465,286.2635,0.00032909,4.955e-05,0.0,0 STARLINK-3291,1 50175U 21125V   23124.60479932  .00004955  00000-0  32909-3 0  9990,2 50175  53.2168 238.2388 0000983  73.8465 286.2635 15.08849166 79097,6917.852,95.437,540.397,539.037,0.0
50175.0,STARLINK-3291,PAYLOAD,2023-05-04 17:41:40,15.08854502,9.76e-05,53.2171,237.6441,76.4591,283.651,0.0006336,9.814e-05,0.0,0 STARLINK-3291,1 50175U 21125V   23124.73727843  .00009814  00000-0  63360-3 0  9995,2 50175  53.2171 237.6441 0000976  76.4591 283.6510 15.08854502 79605,6917.836,95.437,540.376,539.026,0.0
50175.0,STARLINK-3291,PAYLOAD,2023-05-05 08:00:09,15.08839703,0.0001342,53.2168,234.9666,102.5015,257.6128,8.2341e-05,1.023e-05,0.0,0 STARLINK-3291,1 50175U 21125V   23125.33344117  .00001023  00000-0  82341-4 0  9996,2 50175  53.2168 234.9666 0001342 102.5015 257.6128 15.08839703 79208,6917.881,95.438,540.675,538.818,0.0
50175.0,STARLINK-3291,PAYLOAD,2023-05-05 15:57:05,15.08839956,0.0001214,53.2179,233.4819,99.9537,260.1592,0.00010091,1.318e-05,0.0,0 STARLINK-3291,1 50175U 21125V   23125.66464245  .00001318  00000-0  10091-3 0  9996,2 50175  53.2179 233.4819 0001214  99.9537 260.1592 15.08839956 79743,6917.881,95.438,540.585,538.906,0.0
50175.0,STARLINK-3291,PAYLOAD,2023-05-06 14:12:28,15.08854659,0.0001059,53.216,229.3175,87.5917,272.5196,0.00046891,7.186e-05,0.0,0 STARLINK-3291,1 50175U 21125V   23126.59199894  .00007186  00000-0  46891-3 0  9990,2 50175  53.2160 229.3175 0001059  87.5917 272.5196 15.08854659 79883,6917.836,95.437,540.433,538.968,0.0
50175.0,STARLINK-3291,PAYLOAD,2023-05-06 23:44:47,15.08848044,0.000111,53.2151,227.5344,91.3269,268.7851,0.00031413,4.716e-05,0.0,0 STARLINK-3291,1 50175U 21125V   23126.98944014  .00004716  00000-0  31413-3 0  9995,2 50175  53.2151 227.5344 0001110  91.3269 268.7851 15.08848044 79451,6917.856,95.437,540.489,538.953,0.0
50175.0,STARLINK-3291,PAYLOAD,2023-05-07 12:27:53,15.08836244,9.11e-05,53.214,225.1541,81.3995,278.71,1.0608e-05,-1.19e-06,0.0,0 STARLINK-3291,1 50175U 21125V   23127.51936399 -.00000119  00000-0  10608-4 0  9990,2 50175  53.2140 225.1541 0000911  81.3995 278.7100 15.08836244 79531,6917.892,95.438,540.387,539.127,0.0
50175.0,STARLINK-3291,PAYLOAD,2023-05-07 14:03:16,15.0883666,9.8e-05,53.2142,224.8572,86.2691,273.8413,0.00014233,1.978e-05,0.0,0 STARLINK-3291,1 50175U 21125V   23127.58560553  .00001978  00000-0  14233-3 0  9992,2 50175  53.2142 224.8572 0000980  86.2691 273.8413 15.08836660 80038,6917.891,95.438,540.434,539.078,0.0
50175.0,STARLINK-3291,PAYLOAD,2023-05-08 13:54:03,15.0884629,8.49e-05,53.2152,220.3954,92.4428,267.6661,0.00010422,1.372e-05,0.0,0 STARLINK-3291,1 50175U 21125V   23128.57920164  .00001372  00000-0  10422-3 0  9994,2 50175  53.2152 220.3954 0000849  92.4428 267.6661 15.08846290 80187,6917.861,95.437,540.313,539.139,0.0
50175.0,STARLINK-3291,PAYLOAD,2023-05-09 12:09:27,15.08842626,9.92e-05,53.2153,216.232,100.7251,259.3853,0.00013557,1.871e-05,0.0,0 STARLINK-3291,1 50175U 21125V   23129.50656475  .00001871  00000-0  13557-3 0  9995,2 50175  53.2153 216.2320 0000992 100.7251 259.3853 15.08842626 80321,6917.872,95.437,540.424,539.051,0.0
50175.0,STARLINK-3291,PAYLOAD,2023-05-10 12:00:14,15.08840568,0.0001075,53.2156,211.7719,90.0069,270.1046,2.1201e-05,5e-07,0.0,0 STARLINK-3291,1 50175U 21125V   23130.50016859  .00000050  00000-0  21201-4 0  9997,2 50175  53.2156 211.7719 0001075  90.0069 270.1046 15.08840568 80471,6917.879,95.438,540.487,539.0,0.0
50175.0,STARLINK-3291,PAYLOAD,2023-05-10 13:35:37,15.08841251,0.0001098,53.2157,211.4738,95.5971,264.5146,4.3754e-05,4.09e-06,0.0,0 STARLINK-3291,1 50175U 21125V   23130.56640797  .00000409  00000-0  43754-4 0  9992,2 50175  53.2157 211.4738 0001098  95.5971 264.5146 15.08841251 80486,6917.877,95.437,540.501,538.982,0.0
50175.0,STARLINK-3291,PAYLOAD,2023-05-11 10:15:37,15.08848435,0.0001071,53.2168,207.6076,100.9793,259.132,7.3051e-05,8.75e-06,0.0,0 STARLINK-3291,1 50175U 21125V   23131.42752290  .00000875  00000-0  73051-4 0  9990,2 50175  53.2168 207.6076 0001071 100.9793 259.1320 15.08848435 80614,6917.855,95.437,540.461,538.979,0.0
50175.0,STARLINK-3291,PAYLOAD,2023-05-11 11:51:01,15.08848973,0.0001128,53.2158,207.3102,99.851,260.261,0.00014279,1.986e-05,0.0,0 STARLINK-3291,1 50175U 21125V   23131.49376366  .00001986  00000-0  14279-3 0  9993,2 50175  53.2158 207.3102 0001128  99.8510 260.2610 15.08848973 80135,6917.853,95.437,540.498,538.938,0.0
50175.0,STARLINK-3291,PAYLOAD,2023-05-12 08:31:02,15.08836286,0.0001095,53.2155,203.4435,115.9095,244.201,4.0811e-05,3.62e-06,0.0,0 STARLINK-3291,1 50175U 21125V   23132.35488991  .00000362  00000-0  40811-4 0  9996,2 50175  53.2155 203.4435 0001095 115.9095 244.2010 15.08836286 80757,6917.892,95.438,540.514,538.999,0.0
50175.0,STARLINK-3291,PAYLOAD,2023-05-12 21:14:07,15.08838677,0.0001021,53.2154,201.0663,88.3269,271.784,3.9866e-05,3.47e-06,0.0,0 STARLINK-3291,1 50175U 21125V   23132.88481071  .00000347  00000-0  39866-4 0  9997,2 50175  53.2154 201.0663 0001021  88.3269 271.7840 15.08838677 80345,6917.884,95.438,540.456,539.043,0.0
50175.0,STARLINK-3291,PAYLOAD,2023-05-13 09:57:13,15.08839176,9.75e-05,53.2156,198.6883,93.8419,266.2684,-2.7472e-05,-7.25e-06,0.0,0 STARLINK-3291,1 50175U 21125V   23133.41473582 -.00000725  00000-0 -27472-4 0  9997,2 50175  53.2156 198.6883 0000975  93.8419 266.2684 15.08839176 80910,6917.883,95.438,540.422,539.073,0.0
50175.0,STARLINK-3291,PAYLOAD,2023-05-13 21:04:54,15.08841511,0.000101,53.2156,196.607,94.3557,265.755,-1.0509e-05,-4.55e-06,0.0,0 STARLINK-3291,1 50175U 21125V   23133.87841359 -.00000455  00000-0 -10509-4 0  9991,2 50175  53.2156 196.6070 0001010  94.3557 265.7550 15.08841511 80985,6917.876,95.437,540.439,539.042,0.0
50175.0,STARLINK-3291,PAYLOAD,2023-05-14 08:12:37,15.08837285,0.0001065,53.2158,194.5254,90.1898,269.9216,4.2463e-05,3.88e-06,0.0,0 STARLINK-3291,1 50175U 21125V   23134.34209854  .00000388  00000-0  42463-4 0  9999,2 50175  53.2158 194.5254 0001065  90.1898 269.9216 15.08837285 80562,6917.889,95.438,540.49,539.017,0.0
50175.0,STARLINK-3291,PAYLOAD,2023-05-14 12:58:46,15.08838622,0.0001113,53.2157,193.6335,90.7849,269.327,0.00011051,1.471e-05,0.0,0 STARLINK-3291,1 50175U 21125V   23134.54081585  .00001471  00000-0  11051-3 0  9992,2 50175  53.2157 193.6335 0001113  90.7849 269.3270 15.08838622 81085,6917.885,95.438,540.52,538.98,0.0
50175.0,STARLINK-3291,PAYLOAD,2023-05-14 20:55:42,15.08836029,0.0001146,53.2163,192.1477,93.7188,266.3935,9.6208e-05,1.243e-05,0.0,0 STARLINK-3291,1 50175U 21125V   23134.87201855  .00001243  00000-0  96208-4 0  9997,2 50175  53.2163 192.1477 0001146  93.7188 266.3935 15.08836029 81138,6917.893,95.438,540.55,538.965,0.0
50175.0,STARLINK-3291,PAYLOAD,2023-05-15 12:49:33,15.08842985,0.0001134,53.216,189.1737,93.1501,266.9621,0.00013303,1.83e-05,0.0,0 STARLINK-3291,1 50175U 21125V   23135.53441466  .00001830  00000-0  13303-3 0  9991,2 50175  53.2160 189.1737 0001134  93.1501 266.9621 15.08842985 80742,6917.871,95.437,540.521,538.952,0.0
50175.0,STARLINK-3291,PAYLOAD,2023-05-15 20:46:29,15.0882846,0.000111,53.2153,187.6853,92.707,267.4049,0.00018329,2.63e-05,0.0,0 STARLINK-3291,1 50175U 21125V   23135.86562367  .00002630  00000-0  18329-3 0  9993,2 50175  53.2153 187.6853 0001110  92.7070 267.4049 15.08828460 80793,6917.916,95.438,540.549,539.013,0.0
